$$SOE
2460154.500000000, A.D. 2023-Jul-29 00:00:00.0000, -3.846231784402989E+08, -4.605553295515358E+07, -2.282875846657450E+07,
2460161.500000000, A.D. 2023-Aug-05 00:00:00.0000, -3.817777796122369E+08, -5.588774620236091E+07, -2.260690074027077E+07,
2460168.500000000, A.D. 2023-Aug-12 00:00:00.0000, -3.786114633430483E+08, -6.567297023944180E+07, -2.236603448035311E+07,
2460175.500000000, A.D. 2023-Aug-19 00:00:00.0000, -3.751229259743118E+08, -7.540229101469214E+07, -2.210612768523749E+07,
2460182.500000000, A.D. 2023-Aug-26 00:00:00.0000, -3.713109949815297E+08, -8.506659515163112E+07, -2.182715730706340E+07,
2460189.500000000, A.D. 2023-Sep-02 00:00:00.0000, -3.671746393894609E+08, -9.465656153941423E+07, -2.152910991785627E+07,
2460196.500000000, A.D. 2023-Sep-09 00:00:00.0000, -3.627129811400787E+08, -1.041626530057247E+08, -2.121198244502842E+07,
2460203.500000000, A.D. 2023-Sep-16 00:00:00.0000, -3.579253073105733E+08, -1.135751081668939E+08, -2.087578300007015E+07,
2460210.500000000, A.D. 2023-Sep-23 00:00:00.0000, -3.528110828348088E+08, -1.228839332117590E+08, -2.052053181903090E+07,
2460217.500000000, A.D. 2023-Sep-30 00:00:00.0000, -3.473699641408718E+08, -1.320788924793031E+08, -2.014626219028126E+07,
2460224.500000000, A.D. 2023-Oct-07 00:00:00.0000, -3.416018161349743E+08, -1.411494984331824E+08, -1.975302120224960E+07,
2460231.500000000, A.D. 2023-Oct-14 00:00:00.0000, -3.355067315745605E+08, -1.500850044179674E+08, -1.934087068212432E+07,
2460238.500000000, A.D. 2023-Oct-21 00:00:00.0000, -3.290850496904314E+08, -1.588743986756244E+08, -1.890988849558131E+07,
2460245.500000000, A.D. 2023-Oct-28 00:00:00.0000, -3.223373755704570E+08, -1.675063974527809E+08, -1.846016989634969E+07,
2460252.500000000, A.D. 2023-Nov-04 00:00:00.0000, -3.152646016419125E+08, -1.759694380742910E+08, -1.799182887789376E+07,
2460259.500000000, A.D. 2023-Nov-11 00:00:00.0000, -3.078679311641577E+08, -1.842516727066309E+08, -1.750499959711742E+07,
2460266.500000000, A.D. 2023-Nov-18 00:00:00.0000, -3.001489036050364E+08, -1.923409630174491E+08, -1.699983790048325E+07,
2460273.500000000, A.D. 2023-Nov-25 00:00:00.0000, -2.921094219213877E+08, -2.002248758686370E+08, -1.647652296207619E+07,
2460280.500000000, A.D. 2023-Dec-02 00:00:00.0000, -2.837517818053531E+08, -2.078906802342846E+08, -1.593525904129748E+07,
2460287.500000000, A.D. 2023-Dec-09 00:00:00.0000, -2.750787029032629E+08, -2.153253456060533E+08, -1.537627737594581E+07,
2460294.500000000, A.D. 2023-Dec-16 00:00:00.0000, -2.660933617972149E+08, -2.225155421029366E+08, -1.479983823943038E+07,
2460301.500000000, A.D. 2023-Dec-23 00:00:00.0000, -2.567994264688103E+08, -2.294476418552615E+08, -1.420623314067248E+07,
2460308.500000000, A.D. 2023-Dec-30 00:00:00.0000, -2.472010936391503E+08, -2.361077209005810E+08, -1.359578695993207E+07,
2460315.500000000, A.D. 2024-Jan-06 00:00:00.0000, -2.373031307935559E+08, -2.424815642725260E+08, -1.296886005199897E+07,
2460322.500000000, A.D. 2024-Jan-13 00:00:00.0000, -2.271109197354366E+08, -2.485546764470839E+08, -1.232585075551617E+07,
2460329.500000000, A.D. 2024-Jan-20 00:00:00.0000, -2.166305004389989E+08, -2.543122944536173E+08, -1.166719816643338E+07,
2460336.500000000, A.D. 2024-Jan-27 00:00:00.0000, -2.058686171877114E+08, -2.597394034204789E+08, -1.099338493066984E+07,
2460343.500000000, A.D. 2024-Feb-03 00:00:00.0000, -1.948327673381398E+08, -2.648207559557870E+08, -1.030494008491391E+07,
2460350.500000000, A.D. 2024-Feb-10 00:00:00.0000, -1.835312522837732E+08, -2.695408961402457E+08, -9.602441982126117E+06,
2460357.500000000, A.D. 2024-Feb-17 00:00:00.0000, -1.719732302653883E+08, -2.738841886516383E+08, -8.886521298668474E+06,
2460364.500000000, A.D. 2024-Feb-24 00:00:00.0000, -1.601687707091945E+08, -2.778348535778183E+08, -8.157864107318968E+06,
2460371.500000000, A.D. 2024-Mar-02 00:00:00.0000, -1.481289097075415E+08, -2.813770075565595E+08, -7.417214999249354E+06,
2460378.500000000, A.D. 2024-Mar-09 00:00:00.0000, -1.358657060598649E+08, -2.844947119294502E+08, -6.665380244008914E+06,
2460385.500000000, A.D. 2024-Mar-16 00:00:00.0000, -1.233922969276156E+08, -2.871720283416977E+08, -5.903230970983341E+06,
2460392.500000000, A.D. 2024-Mar-23 00:00:00.0000, -1.107229525303591E+08, -2.893930813010854E+08, -5.131706227343813E+06,
2460399.500000000, A.D. 2024-Mar-30 00:00:00.0000, -9.787313130762753E+07, -2.911421283243527E+08, -4.351815656137496E+06,
2460406.500000000, A.D. 2024-Apr-06 00:00:00.0000, -8.485953432228546E+07, -2.924036416038322E+08, -3.564642032179847E+06,
2460413.500000000, A.D. 2024-Apr-13 00:00:00.0000, -7.170015422836517E+07, -2.931624008672662E+08, -2.771343843286172E+06,
2460420.500000000, A.D. 2024-Apr-20 00:00:00.0000, -5.841431846564008E+07, -2.934035951743157E+08, -1.973157531142801E+06,
2460427.500000000, A.D. 2024-Apr-27 00:00:00.0000, -4.502272673751461E+07, -2.931129345042915E+08, -1.171399209097862E+06,
2460434.500000000, A.D. 2024-May-04 00:00:00.0000, -3.154748105423991E+07, -2.922767719664329E+08, -3.674658235325366E+05,
2460441.500000000, A.D. 2024-May-11 00:00:00.0000, -1.801210631150055E+07, -2.908822366529276E+08, 4.371643184465468E+05,
2460448.500000000, A.D. 2024-May-18 00:00:00.0000, -4.441559383455329E+06, -2.889173767747136E+08, 1.240931763475910E+06,
2460455.500000000, A.D. 2024-May-25 00:00:00.0000, 9.137775354966382E+06, -2.863713124477716E+08, 2.042196984976232E+06,
2460462.500000000, A.D. 2024-Jun-01 00:00:00.0000, 2.269810627528638E+07, -2.832343972010088E+08, 2.839242427369565E+06,
2460469.500000000, A.D. 2024-Jun-08 00:00:00.0000, 3.621027291998802E+07, -2.794983868445919E+08, 3.630275620249420E+06,
2460476.500000000, A.D. 2024-Jun-15 00:00:00.0000, 4.964380512154140E+07, -2.751566133268515E+08, 4.413433489160031E+06,
2460483.500000000, A.D. 2024-Jun-22 00:00:00.0000, 6.296700380223215E+07, -2.702041601034375E+08, 5.186788159963503E+06,
2460490.500000000, A.D. 2024-Jun-29 00:00:00.0000, 7.614704309942715E+07, -2.646380380446407E+08, 5.948354395063207E+06,
2460497.500000000, A.D. 2024-Jul-06 00:00:00.0000, 8.915009789247958E+07, -2.584573610669485E+08, 6.696098286429629E+06,
2460504.500000000, A.D. 2024-Jul-13 00:00:00.0000, 1.019414996550967E+08, -2.516635149198342E+08, 7.427947297450930E+06,
2460511.500000000, A.D. 2024-Jul-20 00:00:00.0000, 1.144859190403640E+08, -2.442603138219134E+08, 8.141801932291657E+06,
2460518.500000000, A.D. 2024-Jul-27 00:00:00.0000, 1.267475742392779E+08, -2.362541414186473E+08, 8.835548971835867E+06,
2460525.500000000, A.D. 2024-Aug-03 00:00:00.0000, 1.386904642853811E+08, -2.276540717479620E+08, 9.507076127065480E+06,
2460532.500000000, A.D. 2024-Aug-10 00:00:00.0000, 1.502786254874296E+08, -2.184719654952093E+08, 1.015428794734682E+07,
2460539.500000000, A.D. 2024-Aug-17 00:00:00.0000, 1.614764081068224E+08, -2.087225369506119E+08, 1.077512277958100E+07,
2460546.500000000, A.D. 2024-Aug-24 00:00:00.0000, 1.722487694062125E+08, -1.984233874877461E+08, 1.136757051723495E+07,
2460553.500000000, A.D. 2024-Aug-31 00:00:00.0000, 1.825615783505704E+08, -1.875950019945648E+08, 1.192969081433087E+07,
2460560.500000000, A.D. 2024-Sep-07 00:00:00.0000, 1.923819266613204E+08, -1.762607053001856E+08, 1.245963138817158E+07,
2460567.500000000, A.D. 2024-Sep-14 00:00:00.0000, 2.016784399613663E+08, -1.644465757846293E+08, 1.295564609801535E+07,
2460574.500000000, A.D. 2024-Sep-21 00:00:00.0000, 2.104215801514948E+08, -1.521813151195768E+08, 1.341611260874154E+07,
2460581.500000000, A.D. 2024-Sep-28 00:00:00.0000, 2.185839314753798E+08, -1.394960780210910E+08, 1.383954899958108E+07,
2460588.500000000, A.D. 2024-Oct-05 00:00:00.0000, 2.261404669640905E+08, -1.264242640280163E+08, 1.422462857131652E+07,
2460595.500000000, A.D. 2024-Oct-12 00:00:00.0000, 2.330687883083423E+08, -1.130012717067150E+08, 1.457019275025502E+07,
2460602.500000000, A.D. 2024-Oct-19 00:00:00.0000, 2.393493314996156E+08, -9.926422020999625E+07, 1.487526189766603E+07,
2460609.500000000, A.D. 2024-Oct-26 00:00:00.0000, 2.449655332570107E+08, -8.525164475552505E+07, 1.513904369576846E+07,
2460616.500000000, A.D. 2024-Nov-02 00:00:00.0000, 2.499039547358864E+08, -7.100317281184910E+07, 1.536093888455852E+07,
2460623.500000000, A.D. 2024-Nov-09 00:00:00.0000, 2.541543602106187E+08, -5.655918820660423E+07, 1.554054423771849E+07,
2460630.500000000, A.D. 2024-Nov-16 00:00:00.0000, 2.577097497990889E+08, -4.196049067622397E+07, 1.567765275948683E+07,
2460637.500000000, A.D. 2024-Nov-23 00:00:00.0000, 2.605663467655551E+08, -2.724795839074503E+07, 1.577225116369461E+07,
2460644.500000000, A.D. 2024-Nov-30 00:00:00.0000, 2.627235414608303E+08, -1.246222063080665E+07, 1.582451475627393E+07,
2460651.500000000, A.D. 2024-Dec-07 00:00:00.0000, 2.641837953782281E+08, 2.356653319638538E+06, 1.583479992349799E+07,
2460658.500000000, A.D. 2024-Dec-14 00:00:00.0000, 2.649525087482426E+08, 1.716944470408132E+07, 1.580363465853110E+07,
2460665.500000000, A.D. 2024-Dec-21 00:00:00.0000, 2.650378543237119E+08, 3.193804944718821E+07, 1.573170756498009E+07,
2460672.500000000, A.D. 2024-Dec-28 00:00:00.0000, 2.644505848486471E+08, 4.662570949752413E+07, 1.561985527105628E+07,
2460679.500000000, A.D. 2025-Jan-04 00:00:00.0000, 2.632038225846427E+08, 6.119721141359283E+07, 1.546904857464771E+07,
2460686.500000000, A.D. 2025-Jan-11 00:00:00.0000, 2.613128348691929E+08, 7.561905265451877E+07, 1.528037797868359E+07,
2460693.500000000, A.D. 2025-Jan-18 00:00:00.0000, 2.587948003837146E+08, 8.985957450506106E+07, 1.505503896137749E+07,
2460700.500000000, A.D. 2025-Jan-25 00:00:00.0000, 2.556685715899263E+08, 1.038890619398945E+08, 1.479431722681867E+07,
2460707.500000000, A.D. 2025-Feb-01 00:00:00.0000, 2.519544382269775E+08, 1.176798119586757E+08, 1.449957418838769E+07,
2460714.500000000, A.D. 2025-Feb-08 00:00:00.0000, 2.476738960257137E+08, 1.312061725915123E+08, 1.417223291496594E+07,
$$EOE